#aV2013  4 18  0  0  0.00000000     288 DD+AD WGS84 FIT  NGA
## 1736 345600.00000000   300.00000000 56400 0.0000000000000
+   30     1  2  3  4  5  6  7  8  9 10 11 12 13 14 15 16 17
+         18 19 20 21 22 23 24 25 26 28 29 31 32  0  0  0  0
+          0  0  0  0  0  0  0  0  0  0  0  0  0  0  0  0  0
+          0  0  0  0  0  0  0  0  0  0  0  0  0  0  0  0  0
+          0  0  0  0  0  0  0  0  0  0  0  0  0  0  0  0  0
++         2  2  2  2  2  2  2  2  2  2  2  2  2  2  2  2  2
++         2  2  2  2  2  2  2  2  2  2  2  2  2  2  2  0  0
++         0  0  0  0  0  0  0  0  0  0  0  0  0  0  0  0  0
++         0  0  0  0  0  0  0  0  0  0  0  0  0  0  0  0  0
++         0  0  0  0  0  0  0  0  0  0  0  0  0  0  0  0  0
%c cc cc ccc ccc cccc cccc cccc cccc ccccc ccccc ccccc ccccc
%c cc cc ccc ccc cccc cccc cccc cccc ccccc ccccc ccccc ccccc
%f  0.0000000  0.000000000  0.00000000000  0.000000000000000
%f  0.0000000  0.000000000  0.00000000000  0.000000000000000
%i    0    0    0    0      0      0      0      0         0
%i    0    0    0    0      0      0      0      0         0
/*      NGA, ST. LOUIS,MO.                                  
/*   EPHEMERIS COMPUTED FROM  1 DAYS OF DATA
/*   EPOCHA SMOOTHER  
/* CCCCCCCCCCCCCCCCCCCCCCCCCCCCCCCCCCCCCCCCCCCCCCCCCCCCCCCCC
*  2013  4 18  9 35  0.00000000                                                 
P  1   6625.401879  14175.453039 -21487.303124     17.345640                    
V  1 -26836.534216   4670.503674  -5117.473165      0.035980                    
P  2  17267.961579 -13868.808540  14475.804895    427.874973                    
V  2  18527.037087   -394.013820 -23306.158883      0.019036                    
P  3  -8539.135873  24636.752689   3865.697314    195.606231                    
V  3  -2527.769906  -6298.713015  30770.714808      0.049533                    
P  4  25507.555811  -6877.949717   3676.722203    193.754022                    
V  4   5448.109701   2440.199901 -30594.123632      0.107689                    
P  5   5256.939724 -16399.275739  20154.802419   -392.000179                    
V  5  17191.383761  19188.356701  11251.018629     -0.012286                    
P  6 -13600.585913  20613.534588   9363.936920    268.820766                    
V  6    326.660601 -12382.038728  28358.229393     -0.157167                    
P  7  21302.194401   6973.417865  14516.613218    204.020246                    
V  7 -17828.877022   4048.275155  24000.253061      0.042876                    
P  8  26278.850638   2191.683419   5323.715325      5.662372                    
V  8  -6432.592464   1378.094572  31245.613273      0.001372                    
P  9  21055.282743 -11500.284770 -11994.269874    234.895800                    
V  9  14391.643031   -752.496715  27182.817703      0.026373                    
P 10  17812.729192   -184.394951  19531.876798    -76.977616                    
V 10  14679.791248  20728.737008 -12589.342908     -0.012010                    
P 11    213.870783  17923.545670 -19977.527360   -373.481896                    
V 11 -23003.200745   9454.342294   8702.850669     -0.037297                    
P 12  -9707.592736 -23023.560494  -9343.063565    129.025921                    
V 12   8470.677878   8292.185835 -29123.734062      0.020933                    
P 13   8516.431579  13953.153823  20763.121347    127.466892                    
V 13 -12672.006022  23473.965034 -10622.807271     -0.035513                    
P 14 -17125.043205   5938.654568 -19168.649436    221.082748                    
V 14   9317.586032 -22982.202682 -15430.169599     -0.000101                    
P 15   2390.253297 -24998.424813  -8274.258141   -115.726143                    
V 15   6686.137687  -8853.697733  29036.589312     -0.014365                    
P 16  -6238.607081  14996.959414  20920.415099   -252.501123                    
V 16 -16392.517609 -20991.786956  10482.762754      0.001298                    
P 17  17094.938779  -6590.473866 -18925.220386     28.558916                    
V 17  -8307.195577  23162.420449 -15621.835445     -0.039244                    
P 18 -20550.072322 -13692.434462  -9830.368414    249.446694                    
V 18  -5661.108724 -12146.187280  27274.034153      0.018477                    
P 19  -7473.565131  24565.843404  -5936.699487   -365.816064                    
V 19  -6025.085849   5416.299825  30840.923766     -0.031083                    
P 20  13126.169739  22162.347180  -6808.908207     93.569378                    
V 20  -8285.702581  -3901.638440 -29356.544689      0.019065                    
P 21 -23934.594235  -4931.451975  11592.617445   -292.594543                    
V 21  13174.212432  -4731.834680  25948.056367     -0.021430                    
P 22 -19422.856730  -2808.758986 -17767.910503    164.766150                    
V 22 -12795.057586 -19243.348261  16705.096474      0.010538                    
P 23   3503.092488  21048.764241  15624.579796     94.079458                    
V 23  -9480.017474  17643.617469 -22117.142133     -0.036073                    
P 24  -2426.841193 -15064.108248 -21750.018963     -4.720215                    
V 24  27227.013028  -4520.303944    132.553320     -0.005989                    
P 25 -17398.019404 -20114.563967    973.638725     88.562823                    
V 25   1005.742540  -2490.268835 -31919.423654      0.038227                    
P 26  12882.098239 -22840.656679   2161.459399    -22.347232                    
V 26    724.057673   4319.661257  32234.353794      0.150954                    
P 28  19104.354593   8145.716868 -16078.342808    250.951961                    
V 28  11315.717704  18220.524200  21721.900785      0.032784                    
P 29  -9235.650612 -14241.340102  20495.707565    427.463327                    
V 29  11231.541257 -23326.536166 -11130.825386      0.034817                    
P 31 -24787.479173   7697.562944   6469.691568    311.096355                    
V 31  -8084.327235   -772.889419 -30605.056186      0.015001                    
P 32   4748.512456  23092.110479 -12590.584775   -551.051323                    
V 32 -10843.698618 -12024.600529 -25346.977911     -0.023674                    
EOF
